      2.10          N: GNSS NAV DATA                        RINEX VERSION / TYPE
fic2rin                                 04/24/2022 00:17:44 PGM / RUN BY / DATE
                                                            END OF HEADER
2  22  4 23  2  0  0.0 -.653215683997D-03 -.113686837722D-12  .000000000000D+00
     .580000000000D+02  .553125000000D+01  .456233289662D-08 -.171528300060D+01
     .823289155960D-06  .204749887343D-01  .329501926899D-05  .515365063286D+04
     .525600000000D+06 -.745058059692D-08 -.313052665262D+01  .575557351112D-06
     .965957333692D+00  .319593750000D+03 -.142315029999D+01 -.818498379457D-08
     .130719730716D-09  .100000000000D+01  .220600000000D+04  .000000000000D+00
     .240000000000D+01  .000000000000D+00 -.176951289177D-07  .580000000000D+02
     .518400000000D+06  .400000000000D+01
1  22  4 23  2  0  0.0  .378867145628D-03 -.852651282912D-11  .000000000000D+00
     .760000000000D+02 -.285000000000D+02  .409767068443D-08 -.186273487185D+01
    -.149570405483D-05  .117811205564D-01  .257976353168D-05  .515366769028D+04
     .525600000000D+06  .124797224998D-06 -.303991685395D+01 -.577419996262D-07
     .987776461334D+00  .339625000000D+03  .896126371375D+00 -.798533262116D-08
     .216794744657D-09  .100000000000D+01  .220600000000D+04  .000000000000D+00
     .240000000000D+01  .000000000000D+00  .512227416039D-08  .760000000000D+02
     .518400000000D+06  .400000000000D+01
8  22  4 23  2  0  0.0 -.650794245303D-04 -.159161572810D-11  .000000000000D+00
     .210000000000D+02  .901562500000D+02  .432053711057D-08  .333929695021D+00
     .477768480778D-05  .744639616460D-02  .595115125179D-05  .515375535965D+04
     .525600000000D+06  .171363353729D-06  .216218726113D+01  .391155481339D-07
     .963802585561D+00  .266812500000D+03  .156196641074D+00 -.815641117584D-08
     .978612191697D-10  .100000000000D+01  .220600000000D+04  .000000000000D+00
     .240000000000D+01  .000000000000D+00  .512227416039D-08  .210000000000D+02
     .518400000000D+06  .400000000000D+01
5  22  4 23  2  0  0.0 -.792792998254D-04 -.136424205266D-11  .000000000000D+00
     .610000000000D+02 -.895937500000D+02  .471341061819D-08  .798677335591D+00
    -.443682074547D-05  .591400975827D-02  .641308724880D-05  .515370764351D+04
     .525600000000D+06 -.223517417908D-07 -.204717468689D+01  .447034835815D-07
     .960252397910D+00  .258593750000D+03  .101300387065D+01 -.822891419588D-08
    -.128576784311D-10  .100000000000D+01  .220600000000D+04  .000000000000D+00
     .240000000000D+01  .000000000000D+00 -.111758708954D-07  .610000000000D+02
     .518400000000D+06  .400000000000D+01
6  22  4 23  2  0  0.0  .276615377516D-03  .139834810398D-10  .000000000000D+00
     .330000000000D+02 -.105312500000D+02  .417303096635D-08 -.161539936485D+01
    -.560656189919D-06  .261855323333D-02  .337138772011D-05  .515371238136D+04
     .525600000000D+06 -.139698386192D-06 -.304818870187D+01  .186264514923D-07
     .987126886208D+00  .332750000000D+03 -.873515298881D+00 -.811105214359D-08
     .113576159474D-09  .100000000000D+01  .220600000000D+04  .000000000000D+00
     .240000000000D+01  .000000000000D+00  .372529029846D-08  .330000000000D+02
     .518400000000D+06  .400000000000D+01
3  22  4 23  2  0  0.0 -.217402353883D-03 -.147792889038D-10  .000000000000D+00
     .910000000000D+02 -.112375000000D+03  .425053419467D-08 -.298117718792D+01
    -.577233731747D-05  .405263761058D-02  .756792724133D-05  .515364512253D+04
     .525600000000D+06  .447034835815D-07 -.200587798706D+01 -.115483999252D-06
     .973221852791D+00  .236656250000D+03  .945812789356D+00 -.790318634229D-08
     .200008331150D-10  .100000000000D+01  .220600000000D+04  .000000000000D+00
     .240000000000D+01  .000000000000D+00  .186264514923D-08  .910000000000D+02
     .518400000000D+06  .400000000000D+01
7  22  4 23  2  0  0.0  .320905353874D-03  .909494701773D-12  .000000000000D+00
     .103000000000D+03  .133750000000D+02  .475162649574D-08 -.253370599105D+01
     .540167093277D-06  .159278815845D-01  .746361911297D-05  .515366404724D+04
     .525600000000D+06  .113621354103D-06  .939925099996D-01 -.149011611938D-06
     .951225336091D+00  .228656250000D+03 -.227618311315D+01 -.777389524251D-08
     .125005206969D-10  .100000000000D+01  .220600000000D+04  .000000000000D+00
     .240000000000D+01  .000000000000D+00 -.111758708954D-07  .103000000000D+03
     .518400000000D+06  .400000000000D+01
4  22  4 23  2  0  0.0 -.173640903085D-03  .329691829393D-11  .000000000000D+00
     .000000000000D+00 -.320625000000D+02  .453697469749D-08 -.136072314267D+00
    -.187009572983D-05  .179458071943D-02  .944174826145D-05  .515362391281D+04
     .525600000000D+06 -.372529029846D-08 -.924141290628D+00  .707805156708D-07
     .961102255298D+00  .195750000000D+03 -.297376226767D+01 -.789068582159D-08
     .181793286706D-09  .100000000000D+01  .220600000000D+04  .000000000000D+00
     .240000000000D+01  .000000000000D+00 -.419095158577D-08  .512000000000D+03
     .518400000000D+06  .400000000000D+01
9  22  4 23  2  0  0.0 -.341902021319D-03  .261479726760D-11  .000000000000D+00
     .680000000000D+02 -.384375000000D+02  .463697886307D-08  .805674943824D+00
    -.211596488953D-05  .208943011239D-02  .935047864914D-05  .515358025169D+04
     .525600000000D+06 -.316649675369D-07 -.977649764957D+00  .111758708954D-07
     .954102215696D+00  .195593750000D+03  .188287077034D+01 -.794675958586D-08
     .227509476683D-09  .100000000000D+01  .220600000000D+04  .000000000000D+00
     .240000000000D+01  .000000000000D+00  .139698386192D-08  .680000000000D+02
     .518400000000D+06  .400000000000D+01
19 22  4 23 20  0  0.0  .148267485201D-03  .500222085975D-11  .000000000000D+00
     .500000000000D+02  .661250000000D+02  .421696136765D-08 -.422675870649D+00
     .353343784809D-05  .916289107408D-02  .721961259842D-05  .515369521904D+04
     .590400000000D+06 -.968575477600D-07  .228944034596D+01 -.502914190292D-07
     .977858442906D+00  .252468750000D+03  .204219583978D+01 -.803640617715D-08
     .642883921553D-11  .100000000000D+01  .220600000000D+04  .000000000000D+00
     .240000000000D+01  .000000000000D+00 -.158324837685D-07  .500000000000D+02
     .583200000000D+06  .400000000000D+01
17 22  4 23 20  0  0.0  .604077242315D-03  .466116034659D-11  .000000000000D+00
     .850000000000D+02  .716875000000D+02  .408195574413D-08 -.284259263223D+01
     .383891165257D-05  .135173808085D-01  .737048685551D-05  .515354309464D+04
     .590400000000D+06  .204890966415D-06  .224461635900D+01  .150874257088D-06
     .979029788246D+00  .245343750000D+03 -.149482088472D+01 -.764496130047D-08
    -.750031241812D-11  .100000000000D+01  .220600000000D+04  .000000000000D+00
     .340000000000D+01  .000000000000D+00 -.111758708954D-07  .850000000000D+02
     .583200000000D+06  .400000000000D+01
25 22  4 23 20  0  0.0  .315833371133D-03  .500222085975D-11  .000000000000D+00
     .500000000000D+02  .317187500000D+02  .485020203038D-08 -.281724228659D+00
     .170618295670D-05  .105487408582D-01  .787153840065D-05  .515367847061D+04
     .590400000000D+06  .000000000000D+00  .112878180266D+01  .106170773506D-06
     .956998369246D+00  .232437500000D+03  .999386610772D+00 -.826284418063D-08
    -.285726187357D-09  .100000000000D+01  .220600000000D+04  .000000000000D+00
     .240000000000D+01  .000000000000D+00  .558793544769D-08  .500000000000D+02
     .583200000000D+06  .400000000000D+01
26 22  4 23 20  0  0.0  .200771261007D-03  .272848410532D-11  .000000000000D+00
     .850000000000D+02  .224375000000D+02  .521771733887D-08 -.943879614797D+00
     .122189521790D-05  .693624420092D-02  .692903995514D-05  .515373299980D+04
     .590400000000D+06  .130385160446D-06  .108050917212D+01 -.689178705215D-07
     .937864751043D+00  .229062500000D+03  .388968051041D+00 -.837356307823D-08
    -.238938524177D-09  .100000000000D+01  .220600000000D+04  .000000000000D+00
     .240000000000D+01  .000000000000D+00  .698491930962D-08  .850000000000D+02
     .583200000000D+06  .400000000000D+01
27 22  4 23 20  0  0.0  .189766287804D-03  .818545231596D-11  .000000000000D+00
     .103000000000D+03  .651250000000D+02  .420196074282D-08 -.276463671506D+01
     .319257378578D-05  .105236169184D-01  .836327672005D-05  .515365817833D+04
     .590400000000D+06  .223517417908D-07  .218165889972D+01 -.236555933952D-06
     .972532985148D+00  .223812500000D+03  .670882636063D+00 -.780318217672D-08
    -.378587198248D-10  .100000000000D+01  .220600000000D+04  .000000000000D+00
     .340000000000D+01  .000000000000D+00  .139698386192D-08  .103000000000D+03
     .583200000000D+06  .400000000000D+01
23 22  4 23 20  0  0.0 -.171167775989D-04 -.272848410532D-11  .000000000000D+00
     .157000000000D+03 -.104000000000D+03  .441304096373D-08  .548939452320D+00
    -.553205609322D-05  .208881858271D-02  .535696744919D-05  .515371023560D+04
     .590400000000D+06  .596046447754D-07 -.203436081920D+01  .223517417908D-07
     .968122967396D+00  .278437500000D+03  .300690465481D+01 -.818426947910D-08
    -.205008539429D-09  .100000000000D+01  .220600000000D+04  .000000000000D+00
     .240000000000D+01  .000000000000D+00 -.838190317154D-08  .669000000000D+03
     .583200000000D+06  .400000000000D+01
18 22  4 23 20  0  0.0  .188057776541D-03 -.966338120634D-11  .000000000000D+00
     .117000000000D+03  .175625000000D+02  .453768901296D-08  .160971270092D+01
     .107847154140D-05  .223439675756D-02  .318139791489D-05  .515360959816D+04
     .590400000000D+06  .577419996262D-07 -.303362988451D+01 -.558793544769D-08
     .971581844089D+00  .323093750000D+03  .304687386621D+01 -.835213361418D-08
     .350014579512D-10  .100000000000D+01  .220600000000D+04  .000000000000D+00
     .240000000000D+01  .000000000000D+00 -.838190317154D-08  .373000000000D+03
     .583200000000D+06  .400000000000D+01
